NORAD_CAT_ID,OBJECT_NAME,OBJECT_TYPE,EPOCH,MEAN_MOTION,ECCENTRICITY,INCLINATION,RA_OF_ASC_NODE,ARG_OF_PERICENTER,MEAN_ANOMALY,BSTAR,MEAN_MOTION_DOT,MEAN_MOTION_DDOT,TLE_LINE0,TLE_LINE1,TLE_LINE2,SEMIMAJOR_AXIS,PERIOD,APOGEE,PERIGEE,DECAYED
55649.0,STARLINK-5469,PAYLOAD,2023-10-08 15:44:04,14.98327332,0.0002206,70.0016,250.8043,274.2213,85.8694,1.4165e-05,7.6e-07,0.0,0 STARLINK-5469,1 55649U 23021X   23281.65560888  .00000076  00000-0  14165-4 0  9993,2 55649  70.0016 250.8043 0002206 274.2213  85.8694 14.98327332 36526,6950.201,96.107,573.599,570.533,0.0
55649.0,STARLINK-5469,PAYLOAD,2023-10-09 07:45:24,14.98331742,0.000283,70.0003,249.1222,266.8285,93.255,0.00010535,1.164e-05,0.0,0 STARLINK-5469,1 55649U 23021X   23282.32320083  .00001164  00000-0  10535-3 0  9994,2 55649  70.0003 249.1222 0002830 266.8285  93.2550 14.98331742 36323,6950.188,96.107,574.019,570.086,0.0
55649.0,STARLINK-5469,PAYLOAD,2023-10-09 22:10:37,14.98328762,0.0002832,70.0015,247.6062,271.801,88.2825,3.9698e-05,3.81e-06,0.0,0 STARLINK-5469,1 55649U 23021X   23282.92404407  .00000381  00000-0  39698-4 0  9995,2 55649  70.0015 247.6062 0002832 271.8010  88.2825 14.98328762 36715,6950.197,96.107,574.03,570.093,0.0
55649.0,STARLINK-5469,PAYLOAD,2023-10-10 07:47:25,14.98317623,0.000224,70.0008,246.5965,283.4385,76.6525,0.00036428,4.255e-05,0.0,0 STARLINK-5469,1 55649U 23021X   23283.32460569  .00004255  00000-0  36428-3 0  9992,2 55649  70.0008 246.5965 0002240 283.4385  76.6525 14.98317623 36479,6950.231,96.108,573.653,570.539,0.0
55649.0,STARLINK-5469,PAYLOAD,2023-10-10 22:12:38,14.98328788,0.0002584,70.0014,245.0816,261.2453,98.8413,-3.841e-05,-5.51e-06,0.0,0 STARLINK-5469,1 55649U 23021X   23283.92544586 -.00000551  00000-0 -38410-4 0  9991,2 55649  70.0014 245.0816 0002584 261.2453  98.8413 14.98328788 36865,6950.197,96.107,573.858,570.266,0.0
55649.0,STARLINK-5469,PAYLOAD,2023-10-11 07:49:26,14.98331813,0.0002817,70.0003,244.0729,266.9538,93.1299,-3.8642e-05,-5.54e-06,0.0,0 STARLINK-5469,1 55649U 23021X   23284.32600473 -.00000554  00000-0 -38642-4 0  9994,2 55649  70.0003 244.0729 0002817 266.9538  93.1299 14.98331813 36627,6950.187,96.107,574.01,570.094,0.0
55649.0,STARLINK-5469,PAYLOAD,2023-10-12 07:51:27,14.98355762,0.000291,70.0006,241.5464,277.294,82.7888,-0.00035252,-4.299e-05,0.0,0 STARLINK-5469,1 55649U 23021X   23285.32739613 -.00004299  00000-0 -35252-3 0  9997,2 55649  70.0006 241.5464 0002910 277.2940  82.7888 14.98355762 37071,6950.113,96.105,574.001,569.956,0.0
55649.0,STARLINK-5469,PAYLOAD,2023-10-12 14:16:00,14.98331188,0.0002347,70.0018,240.8729,281.8686,78.221,-7.8892e-06,-1.87e-06,0.0,0 STARLINK-5469,1 55649U 23021X   23285.59444614 -.00000187  00000-0 -78892-5 0  9991,2 55649  70.0018 240.8729 0002347 281.8686  78.2210 14.98331188 36818,6950.189,96.107,573.685,570.423,0.0
55649.0,STARLINK-5469,PAYLOAD,2023-10-12 22:16:40,14.98326393,0.0002832,70.0004,240.0318,269.264,90.8195,5.4457e-05,5.57e-06,0.0,0 STARLINK-5469,1 55649U 23021X   23285.92824567  .00000557  00000-0  54457-4 0  9996,2 55649  70.0004 240.0318 0002832 269.2640  90.8195 14.98326393 37161,6950.204,96.107,574.037,570.101,0.0
55649.0,STARLINK-5469,PAYLOAD,2023-10-13 14:18:00,14.98335354,0.0002747,70.0007,238.3499,267.7914,92.2931,4.5218e-05,4.47e-06,0.0,0 STARLINK-5469,1 55649U 23021X   23286.59583981  .00000447  00000-0  45218-4 0  9995,2 55649  70.0007 238.3499 0002747 267.7914  92.2931 14.98335354 37268,6950.176,96.107,573.951,570.132,0.0
55649.0,STARLINK-5469,PAYLOAD,2023-10-13 20:42:32,14.98335597,0.0002724,70.0009,237.6769,268.7184,91.3663,6.2639e-05,6.55e-06,0.0,0 STARLINK-5469,1 55649U 23021X   23286.86287886  .00000655  00000-0  62639-4 0  9997,2 55649  70.0009 237.6769 0002724 268.7184  91.3663 14.98335597 37000,6950.176,96.107,573.934,570.147,0.0
55649.0,STARLINK-5469,PAYLOAD,2023-10-13 22:18:40,14.9833419,0.0002841,70.0004,237.5071,269.8895,90.1939,7.0238e-05,7.45e-06,0.0,0 STARLINK-5469,1 55649U 23021X   23286.92963894  .00000745  00000-0  70238-4 0  9998,2 55649  70.0004 237.5071 0002841 269.8895  90.1939 14.98334190 37316,6950.18,96.107,574.019,570.07,0.0
55649.0,STARLINK-5469,PAYLOAD,2023-10-14 06:19:20,14.98342944,0.0002823,70.0003,236.6667,264.0802,96.0035,8.9554e-05,9.76e-06,0.0,0 STARLINK-5469,1 55649U 23021X   23287.26343087  .00000976  00000-0  89554-4 0  9999,2 55649  70.0003 236.6667 0002823 264.0802  96.0035 14.98342944 37061,6950.153,96.106,573.98,570.056,0.0
55649.0,STARLINK-5469,PAYLOAD,2023-10-14 20:44:35,14.9831195,0.0002727,70.0009,235.1521,272.0987,87.9859,-0.00017688,-2.202e-05,0.0,0 STARLINK-5469,1 55649U 23021X   23287.86430109 -.00002202  00000-0 -17688-3 0  9991,2 55649  70.0009 235.1521 0002727 272.0987  87.9859 14.98311950 37152,6950.249,96.108,574.009,570.218,0.0
55649.0,STARLINK-5469,PAYLOAD,2023-10-14 22:20:43,14.98308982,0.0002891,70.0009,234.984,269.1416,90.9412,-0.0002134,-2.637e-05,0.0,0 STARLINK-5469,1 55649U 23021X   23287.93106419 -.00002637  00000-0 -21340-3 0  9995,2 55649  70.0009 234.9840 0002891 269.1416  90.9412 14.98308982 37463,6950.258,96.108,574.132,570.114,0.0
55649.0,STARLINK-5469,PAYLOAD,2023-10-15 04:45:17,14.98301525,0.0003267,69.9996,234.3104,270.8863,89.1922,-0.00033371,-4.07e-05,0.0,0 STARLINK-5469,1 55649U 23021X   23288.19811584 -.00004070  00000-0 -33371-3 0  9990,2 55649  69.9996 234.3104 0003267 270.8863  89.1922 14.98301525 37209,6950.281,96.109,574.417,569.875,0.0
55649.0,STARLINK-5469,PAYLOAD,2023-10-15 14:22:04,14.98317562,0.0003078,70.0006,233.3014,269.567,90.5136,-0.00013074,-1.652e-05,0.0,0 STARLINK-5469,1 55649U 23021X   23288.59866476 -.00001652  00000-0 -13074-3 0  9995,2 55649  70.0006 233.3014 0003078 269.5670  90.5136 14.98317562 37564,6950.231,96.108,574.236,569.957,0.0
55649.0,STARLINK-5469,PAYLOAD,2023-10-15 20:46:36,14.98320812,0.0003534,70.0005,232.6281,269.5473,90.5281,-7.9432e-05,-1.041e-05,0.0,0 STARLINK-5469,1 55649U 23021X   23288.86570134 -.00001041  00000-0 -79432-4 0  9991,2 55649  70.0005 232.6281 0003534 269.5473  90.5281 14.98320812 37304,6950.221,96.108,574.543,569.63,0.0
55649.0,STARLINK-5469,PAYLOAD,2023-10-16 06:23:23,14.98340341,0.0002498,70.0013,231.615,271.8457,88.2415,8.3876e-05,9.08e-06,0.0,0 STARLINK-5469,1 55649U 23021X   23289.26624722  .00000908  00000-0  83876-4 0  9995,2 55649  70.0013 231.6150 0002498 271.8457  88.2415 14.98340341 37361,6950.161,96.106,573.762,570.29,0.0
55649.0,STARLINK-5469,PAYLOAD,2023-10-17 06:25:24,14.98329315,0.0002983,70.0005,229.092,267.3643,92.7175,0.00042547,4.987e-05,0.0,0 STARLINK-5469,1 55649U 23021X   23290.26764208  .00004987  00000-0  42547-3 0  9991,2 55649  70.0005 229.0920 0002983 267.3643  92.7175 14.98329315 37512,6950.195,96.107,574.133,569.987,0.0
55649.0,STARLINK-5469,PAYLOAD,2023-10-18 01:39:01,14.98340933,0.0002759,70.0007,227.0726,271.1024,88.9819,-5.8916e-05,-7.96e-06,0.0,0 STARLINK-5469,1 55649U 23021X   23291.06876538 -.00000796  00000-0 -58916-4 0  9994,2 55649  70.0007 227.0726 0002759 271.1024  88.9819 14.98340933 37930,6950.159,96.106,573.942,570.107,0.0
55649.0,STARLINK-5469,PAYLOAD,2023-10-18 12:51:57,14.98347372,0.0002652,70.0013,225.8947,266.1275,93.9581,-0.00020458,-2.534e-05,0.0,0 STARLINK-5469,1 55649U 23021X   23291.53608096 -.00002534  00000-0 -20458-3 0  9999,2 55649  70.0013 225.8947 0002652 266.1275  93.9581 14.98347372 37703,6950.139,96.106,573.847,570.161,0.0
55649.0,STARLINK-5469,PAYLOAD,2023-10-19 06:29:25,14.98339409,0.0002441,70.0018,224.042,264.0076,96.0805,3.3355e-05,3.05e-06,0.0,0 STARLINK-5469,1 55649U 23021X   23292.27043435  .00000305  00000-0  33355-4 0  9994,2 55649  70.0018 224.0420 0002441 264.0076  96.0805 14.98339409 38118,6950.164,96.106,573.725,570.332,0.0
55649.0,STARLINK-5469,PAYLOAD,2023-10-19 19:18:30,14.98330927,0.0002066,70.0027,222.6949,261.5276,98.5649,-2.0265e-05,-3.35e-06,0.0,0 STARLINK-5469,1 55649U 23021X   23292.80452010 -.00000335  00000-0 -20265-4 0  9997,2 55649  70.0027 222.6949 0002066 261.5276  98.5649 14.98330927 37898,6950.19,96.107,573.491,570.619,0.0
55649.0,STARLINK-5469,PAYLOAD,2023-10-19 22:30:46,14.98329407,0.000225,70.002,222.3586,263.5091,96.5811,-6.8318e-05,-9.08e-06,0.0,0 STARLINK-5469,1 55649U 23021X   23292.93804219 -.00000908  00000-0 -68318-4 0  9990,2 55649  70.0020 222.3586 0002250 263.5091  96.5811 14.98329407 38214,6950.195,96.107,573.624,570.496,0.0
55649.0,STARLINK-5469,PAYLOAD,2023-10-20 04:55:18,14.98333397,0.0002549,70.0009,221.6854,264.4312,95.6556,-7.4846e-05,-9.86e-06,0.0,0 STARLINK-5469,1 55649U 23021X   23293.20507949 -.00000986  00000-0 -74846-4 0  9990,2 55649  70.0009 221.6854 0002549 264.4312  95.6556 14.98333397 38251,6950.182,96.107,573.819,570.276,0.0
55649.0,STARLINK-5469,PAYLOAD,2023-10-20 19:20:32,14.98320465,0.0002732,70.0001,220.1715,270.6223,89.4623,-9.6869e-05,-1.248e-05,0.0,0 STARLINK-5469,1 55649U 23021X   23293.80592985 -.00001248  00000-0 -96869-4 0  9991,2 55649  70.0001 220.1715 0002732 270.6223  89.4623 14.98320465 38042,6950.222,96.108,573.986,570.189,0.0
55649.0,STARLINK-5469,PAYLOAD,2023-10-20 22:32:48,14.98321716,0.0002661,70.0,219.8336,270.2118,89.8736,-0.00014906,-1.871e-05,0.0,0 STARLINK-5469,1 55649U 23021X   23293.93945117 -.00001871  00000-0 -14906-3 0  9997,2 55649  70.0000 219.8336 0002661 270.2118  89.8736 14.98321716 38369,6950.219,96.108,573.933,570.234,0.0
55649.0,STARLINK-5469,PAYLOAD,2023-10-21 04:57:20,14.98328236,0.0002556,70.0013,219.1612,269.3685,90.7181,-9.4758e-05,-1.223e-05,0.0,0 STARLINK-5469,1 55649U 23021X   23294.20648782 -.00001223  00000-0 -94758-4 0  9991,2 55649  70.0013 219.1612 0002556 269.3685  90.7181 14.98328236 38105,6950.198,96.107,573.84,570.287,0.0
55649.0,STARLINK-5469,PAYLOAD,2023-10-21 20:58:40,14.9833472,0.0002462,70.0024,217.477,275.0545,85.0333,0.00018809,2.152e-05,0.0,0 STARLINK-5469,1 55649U 23021X   23294.87407492  .00002152  00000-0  18809-3 0  9997,2 55649  70.0024 217.4770 0002462 275.0545  85.0333 14.98334720 38200,6950.178,96.107,573.754,570.332,0.0
